NORAD_CAT_ID,OBJECT_NAME,OBJECT_TYPE,EPOCH,MEAN_MOTION,ECCENTRICITY,INCLINATION,RA_OF_ASC_NODE,ARG_OF_PERICENTER,MEAN_ANOMALY,BSTAR,MEAN_MOTION_DOT,MEAN_MOTION_DDOT,TLE_LINE0,TLE_LINE1,TLE_LINE2,SEMIMAJOR_AXIS,PERIOD,APOGEE,PERIGEE,DECAYED
52620.0,STARLINK-3975,PAYLOAD,2024-07-18 22:16:11,15.08834453,0.0001572,53.218,92.0693,93.8243,266.2929,4.1549e-05,3.73e-06,0.0,0 STARLINK-3975,1 52620U 22052Y   24200.92790703  .00000373  00000-0  41549-4 0  9991,2 52620  53.2180  92.0693 0001572  93.8243 266.2929 15.08834453120380,6917.897,95.438,540.85,538.675,0.0
52620.0,STARLINK-3975,PAYLOAD,2024-07-19 03:02:19,15.08849682,0.0001367,53.2162,91.1713,99.303,260.8116,5.0421e-05,5.15e-06,0.0,0 STARLINK-3975,1 52620U 22052Y   24201.12661524  .00000515  00000-0  50421-4 0  9999,2 52620  53.2162  91.1713 0001367  99.3030 260.8116 15.08849682120793,6917.851,95.437,540.661,538.77,0.0
52620.0,STARLINK-3975,PAYLOAD,2024-07-19 09:23:52,15.08846459,0.0001432,53.2165,89.9804,84.4427,275.6729,5.5525e-05,5.96e-06,0.0,0 STARLINK-3975,1 52620U 22052Y   24201.39157752  .00000596  00000-0  55525-4 0  9990,2 52620  53.2165  89.9804 0001432  84.4427 275.6729 15.08846459120456,6917.861,95.437,540.716,538.735,0.0
52620.0,STARLINK-3975,PAYLOAD,2024-07-19 20:31:35,15.08834167,0.0001375,53.2163,87.901,88.9443,271.1706,1.6636e-05,-2.3e-07,0.0,0 STARLINK-3975,1 52620U 22052Y   24201.85526972 -.00000023  00000-0  16636-4 0  9991,2 52620  53.2163  87.9010 0001375  88.9443 271.1706 15.08834167120903,6917.898,95.438,540.714,538.812,0.0
52620.0,STARLINK-3975,PAYLOAD,2024-07-19 22:06:58,15.08834727,0.0001424,53.2166,87.6038,81.3488,278.7665,1.9067e-05,1.5e-07,0.0,0 STARLINK-3975,1 52620U 22052Y   24201.92150931  .00000015  00000-0  19067-4 0  9998,2 52620  53.2166  87.6038 0001424  81.3488 278.7665 15.08834727120532,6917.897,95.438,540.747,538.776,0.0
52620.0,STARLINK-3975,PAYLOAD,2024-07-20 02:53:06,15.08849966,0.0001428,53.2175,86.7142,86.6076,273.508,0.00015354,2.157e-05,0.0,0 STARLINK-3975,1 52620U 22052Y   24202.12021569  .00002157  00000-0  15354-3 0  9998,2 52620  53.2175  86.7142 0001428  86.6076 273.5080 15.08849966120943,6917.85,95.437,540.703,538.727,0.0
52620.0,STARLINK-3975,PAYLOAD,2024-07-20 09:14:40,15.08834188,0.0001807,53.2178,85.5268,90.3742,269.7457,1.4782e-05,-5.3e-07,0.0,0 STARLINK-3975,1 52620U 22052Y   24202.38519130 -.00000053  00000-0  14782-4 0  9991,2 52620  53.2178  85.5268 0001807  90.3742 269.7457 15.08834188120984,6917.898,95.438,541.013,538.513,0.0
52620.0,STARLINK-3975,PAYLOAD,2024-07-20 21:57:45,15.08843421,0.000145,53.2163,83.1415,88.2653,271.8505,2.0662e-05,4.1e-07,0.0,0 STARLINK-3975,1 52620U 22052Y   24202.91510583  .00000041  00000-0  20662-4 0  9993,2 52620  53.2163  83.1415 0001450  88.2653 271.8505 15.08843421120682,6917.87,95.437,540.738,538.732,0.0
52620.0,STARLINK-3975,PAYLOAD,2024-07-21 01:08:30,15.08855855,0.0001375,53.2164,82.5483,104.9498,255.1646,0.00012458,1.696e-05,0.0,0 STARLINK-3975,1 52620U 22052Y   24203.04757281  .00001696  00000-0  12458-3 0  9996,2 52620  53.2164  82.5483 0001375 104.9498 255.1646 15.08855855121080,6917.832,95.437,540.648,538.746,0.0
52620.0,STARLINK-3975,PAYLOAD,2024-07-21 20:13:09,15.08835358,0.0002076,53.216,78.9864,134.1957,225.9206,2.9162e-05,1.76e-06,0.0,0 STARLINK-3975,1 52620U 22052Y   24203.84246857  .00000176  00000-0  29162-4 0  9999,2 52620  53.2160  78.9864 0002076 134.1957 225.9206 15.08835358121209,6917.895,95.438,541.196,538.323,0.0
52620.0,STARLINK-3975,PAYLOAD,2024-07-21 21:48:32,15.08842458,0.0001485,53.2162,78.6833,109.3151,250.8002,-6.6253e-05,-1.342e-05,0.0,0 STARLINK-3975,1 52620U 22052Y   24203.90870889 -.00001342  00000-0 -66253-4 0  9994,2 52620  53.2162  78.6833 0001485 109.3151 250.8002 15.08842458120835,6917.873,95.437,540.765,538.711,0.0
52620.0,STARLINK-3975,PAYLOAD,2024-07-22 00:59:18,15.08847172,0.0001427,53.2165,78.0887,78.1695,281.9457,-1.6045e-05,-5.43e-06,0.0,0 STARLINK-3975,1 52620U 22052Y   24204.04118589 -.00000543  00000-0 -16045-4 0  9998,2 52620  53.2165  78.0887 0001427  78.1695 281.9457 15.08847172121235,6917.858,95.437,540.711,538.736,0.0
52620.0,STARLINK-3975,PAYLOAD,2024-07-22 21:39:21,15.08828339,0.0001409,53.2176,74.2151,102.8703,257.2447,-0.00017327,-3.044e-05,0.0,0 STARLINK-3975,1 52620U 22052Y   24204.90232716 -.00003044  00000-0 -17327-3 0  9994,2 52620  53.2176  74.2151 0001409 102.8703 257.2447 15.08828339120984,6917.916,95.438,540.756,538.806,0.0
52620.0,STARLINK-3975,PAYLOAD,2024-07-23 00:50:07,15.08829676,0.0001323,53.218,73.6165,103.4894,256.6246,-0.00015214,-2.708e-05,0.0,0 STARLINK-3975,1 52620U 22052Y   24205.03480606 -.00002708  00000-0 -15214-3 0  9991,2 52620  53.2180  73.6165 0001323 103.4894 256.6246 15.08829676121380,6917.912,95.438,540.692,538.862,0.0
52620.0,STARLINK-3975,PAYLOAD,2024-07-23 08:47:01,15.08844187,0.0001236,53.2166,72.1444,112.6412,247.4711,2.9174e-05,1.77e-06,0.0,0 STARLINK-3975,1 52620U 22052Y   24205.36599400  .00000177  00000-0  29174-4 0  9997,2 52620  53.2166  72.1444 0001236 112.6412 247.4711 15.08844187121434,6917.868,95.437,540.588,538.878,0.0
52620.0,STARLINK-3975,PAYLOAD,2024-07-24 00:40:51,15.0886173,0.0001468,53.2169,69.1678,85.8825,274.2335,0.00022338,3.271e-05,0.0,0 STARLINK-3975,1 52620U 22052Y   24206.02837771  .00003271  00000-0  22338-3 0  9999,2 52620  53.2169  69.1678 0001468  85.8825 274.2335 15.08861730121532,6917.814,95.436,540.695,538.663,0.0
52620.0,STARLINK-3975,PAYLOAD,2024-07-24 14:59:21,15.08847405,0.0001524,53.2146,66.495,78.1607,281.9556,4.158e-05,3.74e-06,0.0,0 STARLINK-3975,1 52620U 22052Y   24206.62455466  .00000374  00000-0  41580-4 0  9994,2 52620  53.2146  66.4950 0001524  78.1607 281.9556 15.08847405121247,6917.858,95.437,540.777,538.668,0.0
52620.0,STARLINK-3975,PAYLOAD,2024-07-25 00:31:40,15.08847343,0.0001489,53.2143,64.7107,80.3364,279.7796,3.8518e-05,3.25e-06,0.0,0 STARLINK-3975,1 52620U 22052Y   24207.02199231  .00000325  00000-0  38518-4 0  9997,2 52620  53.2143  64.7107 0001489  80.3364 279.7796 15.08847343121303,6917.858,95.437,540.753,538.693,0.0
52620.0,STARLINK-3975,PAYLOAD,2024-07-25 14:50:06,15.08931353,0.0001663,53.2152,62.0306,80.2275,279.8904,-0.0010939,-0.00017699,0.0,0 STARLINK-3975,1 52620U 22052Y   24207.61812597 -.00017699  00000-0 -10939-2 0  9998,2 52620  53.2152  62.0306 0001663  80.2275 279.8904 15.08931353121777,6917.601,95.432,540.617,538.316,0.0
52620.0,STARLINK-3975,PAYLOAD,2024-07-26 00:22:25,15.08853962,0.0001686,53.215,60.247,97.6414,262.477,0.00013389,1.844e-05,0.0,0 STARLINK-3975,1 52620U 22052Y   24208.01557475  .00001844  00000-0  13389-3 0  9990,2 52620  53.2150  60.2470 0001686  97.6414 262.4770 15.08853962121834,6917.838,95.437,540.869,538.536,0.0
52620.0,STARLINK-3975,PAYLOAD,2024-07-26 14:40:55,15.08832208,0.0001386,53.2159,57.571,100.1146,260.0003,-6.7721e-05,-1.365e-05,0.0,0 STARLINK-3975,1 52620U 22052Y   24208.61175398 -.00001365  00000-0 -67721-4 0  9996,2 52620  53.2159  57.5710 0001386 100.1146 260.0003 15.08832208121549,6917.904,95.438,540.728,538.81,0.0
52620.0,STARLINK-3975,PAYLOAD,2024-07-26 21:02:27,15.08838317,0.0001718,53.2138,56.3826,101.4,258.7185,1.9979e-05,3e-07,0.0,0 STARLINK-3975,1 52620U 22052Y   24208.87670814  .00000030  00000-0  19979-4 0  9995,2 52620  53.2138  56.3826 0001718 101.4000 258.7185 15.08838317121961,6917.886,95.438,540.939,538.562,0.0
52620.0,STARLINK-3975,PAYLOAD,2024-07-26 22:37:50,15.08839244,0.000155,53.2137,56.0854,96.0696,264.0472,3.1316e-07,-2.83e-06,0.0,0 STARLINK-3975,1 52620U 22052Y   24208.94294808 -.00000283  00000-0  31316-6 0  9990,2 52620  53.2137  56.0854 0001550  96.0696 264.0472 15.08839244121590,6917.883,95.438,540.82,538.675,0.0
52620.0,STARLINK-3975,PAYLOAD,2024-07-27 22:28:38,15.08838076,0.0001433,53.2148,51.6237,94.3411,265.7745,-0.00010827,-2.011e-05,0.0,0 STARLINK-3975,1 52620U 22052Y   24209.93655432 -.00002011  00000-0 -10827-3 0  9997,2 52620  53.2148  51.6237 0001433  94.3411 265.7745 15.08838076121744,6917.886,95.438,540.743,538.76,0.0
52620.0,STARLINK-3975,PAYLOAD,2024-07-28 20:44:01,15.08848463,0.0001212,53.2161,47.4603,99.1155,260.9975,-4.7421e-05,-1.043e-05,0.0,0 STARLINK-3975,1 52620U 22052Y   24210.86391061 -.00001043  00000-0 -47421-4 0  9991,2 52620  53.2161  47.4603 0001212  99.1155 260.9975 15.08848463122263,6917.855,95.437,540.558,538.881,0.0
52620.0,STARLINK-3975,PAYLOAD,2024-07-29 12:37:53,15.08842883,0.0001283,53.2163,44.487,90.658,269.4559,0.00012426,1.69e-05,0.0,0 STARLINK-3975,1 52620U 22052Y   24211.52631260  .00001690  00000-0  12426-3 0  9995,2 52620  53.2163  44.4870 0001283  90.6580 269.4559 15.08842883121984,6917.872,95.437,540.624,538.849,0.0
52620.0,STARLINK-3975,PAYLOAD,2024-07-29 20:34:48,15.08848416,0.0001222,53.2167,43.0004,89.9072,270.206,0.00015762,2.222e-05,0.0,0 STARLINK-3975,1 52620U 22052Y   24211.85750770  .00002222  00000-0  15762-3 0  9997,2 52620  53.2167  43.0004 0001222  89.9072 270.2060 15.08848416122034,6917.855,95.437,540.565,538.874,0.0
52620.0,STARLINK-3975,PAYLOAD,2024-07-29 22:10:11,15.08853329,0.0001179,53.217,42.703,90.5943,269.5185,0.00015302,2.149e-05,0.0,0 STARLINK-3975,1 52620U 22052Y   24211.92374455  .00002149  00000-0  15302-3 0  9995,2 52620  53.2170  42.7030 0001179  90.5943 269.5185 15.08853329122420,6917.84,95.437,540.52,538.889,0.0
52620.0,STARLINK-3975,PAYLOAD,2024-07-30 12:28:40,15.08841242,0.0001336,53.2165,40.0271,83.467,276.6475,6.5297e-05,7.51e-06,0.0,0 STARLINK-3975,1 52620U 22052Y   24212.51991467  .00000751  00000-0  65297-4 0  9995,2 52620  53.2165  40.0271 0001336  83.4670 276.6475 15.08841242122517,6917.877,95.437,540.666,538.817,0.0
52620.0,STARLINK-3975,PAYLOAD,2024-07-30 18:50:12,15.08844136,0.0001292,53.2163,38.8376,82.7348,277.3791,8.1904e-05,1.016e-05,0.0,0 STARLINK-3975,1 52620U 22052Y   24212.78487139  .00001016  00000-0  81904-4 0  9998,2 52620  53.2163  38.8376 0001292  82.7348 277.3791 15.08844136122177,6917.868,95.437,540.627,538.839,0.0
